[{"OBJECT_NAME":"STARLINK-3726","OBJECT_ID":"2022-029AL","EPOCH":"2026-03-09T07:47:26.196000","MEAN_MOTION":15.08829473,"ECCENTRICITY":0.00013345,"INCLINATION":53.2169,"RA_OF_ASC_NODE":80.7606,"ARG_OF_PERICENTER":88.5591,"MEAN_ANOMALY":271.5554,"EPHEMERIS_TYPE":0,"CLASSIFICATION_TYPE":"U","NORAD_CAT_ID":52122,"ELEMENT_SET_NO":999,"REV_AT_EPOCH":22073,"BSTAR":-6.2234522e-5,"MEAN_MOTION_DOT":-1.278e-5,"MEAN_MOTION_DDOT":0},{"OBJECT_NAME":"TITAN 3C TRANSTAGE DEB","OBJECT_ID":"1965-082EA","EPOCH":"2026-03-09T23:10:17.723424","MEAN_MOTION":15.08375165,"ECCENTRICITY":0.00122709,"INCLINATION":32.3951,"RA_OF_ASC_NODE":291.2548,"ARG_OF_PERICENTER":351.0252,"MEAN_ANOMALY":9.0191,"EPHEMERIS_TYPE":0,"CLASSIFICATION_TYPE":"U","NORAD_CAT_ID":1835,"ELEMENT_SET_NO":999,"REV_AT_EPOCH":23237,"BSTAR":0.00035954995,"MEAN_MOTION_DOT":5.778e-5,"MEAN_MOTION_DDOT":0}]
